[{"OBJECT_NAME":"SHERPA-LTC2","OBJECT_ID":"2022-107BG","EPOCH":"2026-03-09T17:14:31.494912","MEAN_MOTION":14.68527555,"ECCENTRICITY":0.0397806,"INCLINATION":53.2359,"RA_OF_ASC_NODE":281.0426,"ARG_OF_PERICENTER":308.3547,"MEAN_ANOMALY":48.2298,"EPHEMERIS_TYPE":0,"CLASSIFICATION_TYPE":"U","NORAD_CAT_ID":53754,"ELEMENT_SET_NO":999,"REV_AT_EPOCH":18792,"BSTAR":0.0002221958,"MEAN_MOTION_DOT":4.161e-5,"MEAN_MOTION_DDOT":0},{"OBJECT_NAME":"STARLINK-6091","OBJECT_ID":"2023-046AC","EPOCH":"2026-03-09T22:00:01.999584","MEAN_MOTION":15.12146567,"ECCENTRICITY":0.00019288,"INCLINATION":42.9992,"RA_OF_ASC_NODE":144.7616,"ARG_OF_PERICENTER":284.3584,"MEAN_ANOMALY":155.5208,"EPHEMERIS_TYPE":0,"CLASSIFICATION_TYPE":"U","NORAD_CAT_ID":56119,"ELEMENT_SET_NO":999,"REV_AT_EPOCH":577,"BSTAR":0.00049828792,"MEAN_MOTION_DOT":8.529e-5,"MEAN_MOTION_DDOT":0}]
